[{"OBJECT_NAME":"STARLINK-30457","OBJECT_ID":"2023-146K","EPOCH":"2026-03-09T01:19:36.039936","MEAN_MOTION":15.02534066,"ECCENTRICITY":0.00012621,"INCLINATION":43.0042,"RA_OF_ASC_NODE":316.555,"ARG_OF_PERICENTER":271.3954,"MEAN_ANOMALY":88.6744,"EPHEMERIS_TYPE":0,"CLASSIFICATION_TYPE":"U","NORAD_CAT_ID":57900,"ELEMENT_SET_NO":999,"REV_AT_EPOCH":13591,"BSTAR":-2.0150498e-5,"MEAN_MOTION_DOT":-4.76e-6,"MEAN_MOTION_DDOT":0},{"OBJECT_NAME":"UNKNOWN","OBJECT_ID":"","EPOCH":"2026-03-09T22:13:37.396992","MEAN_MOTION":14.94079285,"ECCENTRICITY":0.00368591,"INCLINATION":98.4007,"RA_OF_ASC_NODE":57.0532,"ARG_OF_PERICENTER":27.679,"MEAN_ANOMALY":332.6379,"EPHEMERIS_TYPE":0,"CLASSIFICATION_TYPE":"U","NORAD_CAT_ID":270309,"ELEMENT_SET_NO":999,"REV_AT_EPOCH":28085,"BSTAR":0.00073987035,"MEAN_MOTION_DOT":7.947e-5,"MEAN_MOTION_DDOT":0}]
